SL-16 R/B               
1 22566U 93016B   26046.02183250 -.00000242  00000+0 -99946-4 0  9999
2 22566  71.0051 262.7932 0010558 344.9610  15.1197 14.15301579698962
COSMOS 2242             
1 22626U 93024A   26046.10265616  .00001812  00000+0  15698-3 0  9994
2 22626  82.5183 288.3220 0017180  26.1162 334.0923 14.96453602777013
SL-16 R/B               
1 22803U 93059B   26046.24378883 -.00000147  00000+0 -49079-4 0  9998
2 22803  70.9890  58.4609 0019401 247.5484 112.3585 14.17227951676352
ARIANE 40 R/B           
1 22830U 93061H   26046.14323493  .00000175  00000+0  80015-4 0  9991
2 22830  98.4965 115.4703 0010415 357.3689   2.7439 14.32848522690875
COSMOS 2278             
1 23087U 94023A   26045.89531233  .00000068  00000+0  60131-4 0  9997
2 23087  71.0503 222.7859 0006920  57.6132 302.5659 14.14363719641587
SL-16 R/B               
1 23088U 94023B   26046.30558722  .00000326  00000+0  19271-3 0  9992
2 23088  70.9994 117.8992 0004667 306.8554  53.2140 14.15006478642926
SL-16 R/B               
1 23343U 94074B   26046.06614027  .00000453  00000+0  67387-4 0  9999
2 23343  97.7140  77.7968 0005295 302.2193 111.6624 14.79380133683906
SL-16 R/B               
1 23405U 94077B   26046.22526558  .00000324  00000+0  19026-3 0  9993
2 23405  70.9826  39.7485 0004015 231.7880 128.2881 14.15561226613051
ARIANE 40+ R/B          
1 23561U 95021B   26046.23190875  .00000365  00000+0  13023-3 0  9992
2 23561  98.4546 118.0136 0006463 199.5975 228.2917 14.39755916616014
SL-16 R/B               
1 23705U 95058B   26045.94846537  .00000055  00000+0  52465-4 0  9992
2 23705  71.0196 227.9983 0011716 164.6403 195.5078 14.15495655564637
SL-16 R/B               
1 24298U 96051B   26045.93658186  .00000095  00000+0  78249-4 0  9996
2 24298  70.7569 223.3977 0017010 180.3154 179.7958 14.12409126518432
ORBVIEW 2 (SEASTAR)     
1 24883U 97037A   26046.04337913  .00000306  00000+0  12255-3 0  9995
2 24883  98.8526 209.7603 0003155 117.8183 242.3322 14.35477060505224
