CCSDS_OMM_VERS = 2.0
CREATION_DATE  = 
ORIGINATOR     = 

OBJECT_NAME    = SL-16 R/B
OBJECT_ID      = 1993-016B
CENTER_NAME    = EARTH
REF_FRAME      = TEME
TIME_SYSTEM    = UTC
MEAN_ELEMENT_THEORY = SGP/SGP4

EPOCH          = 2026-02-15T00:31:26.328000
MEAN_MOTION    = 14.15301579
ECCENTRICITY   = .00105588
INCLINATION    = 71.0051
RA_OF_ASC_NODE = 262.7932
ARG_OF_PERICENTER = 344.9610
MEAN_ANOMALY   = 15.1197

EPHEMERIS_TYPE = 0
CLASSIFICATION_TYPE = U
NORAD_CAT_ID   = 22566
ELEMENT_SET_NO = 999
REV_AT_EPOCH   = 69896
BSTAR          = -.99946434E-4
MEAN_MOTION_DOT = -.242E-5
MEAN_MOTION_DDOT = 0

CCSDS_OMM_VERS = 2.0
CREATION_DATE  = 
ORIGINATOR     = 

OBJECT_NAME    = COSMOS 2242
OBJECT_ID      = 1993-024A
CENTER_NAME    = EARTH
REF_FRAME      = TEME
TIME_SYSTEM    = UTC
MEAN_ELEMENT_THEORY = SGP/SGP4

EPOCH          = 2026-02-15T02:27:49.492224
MEAN_MOTION    = 14.96453602
ECCENTRICITY   = .00171806
INCLINATION    = 82.5183
RA_OF_ASC_NODE = 288.3220
ARG_OF_PERICENTER = 26.1162
MEAN_ANOMALY   = 334.0923

EPHEMERIS_TYPE = 0
CLASSIFICATION_TYPE = U
NORAD_CAT_ID   = 22626
ELEMENT_SET_NO = 999
REV_AT_EPOCH   = 77701
BSTAR          = .15698105E-3
MEAN_MOTION_DOT = .1812E-4
MEAN_MOTION_DDOT = 0

CCSDS_OMM_VERS = 2.0
CREATION_DATE  = 
ORIGINATOR     = 

OBJECT_NAME    = SL-16 R/B
OBJECT_ID      = 1993-059B
CENTER_NAME    = EARTH
REF_FRAME      = TEME
TIME_SYSTEM    = UTC
MEAN_ELEMENT_THEORY = SGP/SGP4

EPOCH          = 2026-02-15T05:51:03.354912
MEAN_MOTION    = 14.17227951
ECCENTRICITY   = .00194016
INCLINATION    = 70.9890
RA_OF_ASC_NODE = 58.4609
ARG_OF_PERICENTER = 247.5484
MEAN_ANOMALY   = 112.3585

EPHEMERIS_TYPE = 0
CLASSIFICATION_TYPE = U
NORAD_CAT_ID   = 22803
ELEMENT_SET_NO = 999
REV_AT_EPOCH   = 67635
BSTAR          = -.49078999E-4
MEAN_MOTION_DOT = -.147E-5
MEAN_MOTION_DDOT = 0

CCSDS_OMM_VERS = 2.0
CREATION_DATE  = 
ORIGINATOR     = 

OBJECT_NAME    = ARIANE 40 R/B
OBJECT_ID      = 1993-061H
CENTER_NAME    = EARTH
REF_FRAME      = TEME
TIME_SYSTEM    = UTC
MEAN_ELEMENT_THEORY = SGP/SGP4

EPOCH          = 2026-02-15T03:26:15.497952
MEAN_MOTION    = 14.32848522
ECCENTRICITY   = .0010415
INCLINATION    = 98.4965
RA_OF_ASC_NODE = 115.4703
ARG_OF_PERICENTER = 357.3689
MEAN_ANOMALY   = 2.7439

EPHEMERIS_TYPE = 0
CLASSIFICATION_TYPE = U
NORAD_CAT_ID   = 22830
ELEMENT_SET_NO = 999
REV_AT_EPOCH   = 69087
BSTAR          = .80014875E-4
MEAN_MOTION_DOT = .175E-5
MEAN_MOTION_DDOT = 0

CCSDS_OMM_VERS = 2.0
CREATION_DATE  = 
ORIGINATOR     = 

OBJECT_NAME    = COSMOS 2278
OBJECT_ID      = 1994-023A
CENTER_NAME    = EARTH
REF_FRAME      = TEME
TIME_SYSTEM    = UTC
MEAN_ELEMENT_THEORY = SGP/SGP4

EPOCH          = 2026-02-14T21:29:14.985312
MEAN_MOTION    = 14.14363719
ECCENTRICITY   = .00069204
INCLINATION    = 71.0503
RA_OF_ASC_NODE = 222.7859
ARG_OF_PERICENTER = 57.6132
MEAN_ANOMALY   = 302.5659

EPHEMERIS_TYPE = 0
CLASSIFICATION_TYPE = U
NORAD_CAT_ID   = 23087
ELEMENT_SET_NO = 999
REV_AT_EPOCH   = 64158
BSTAR          = .60130917E-4
MEAN_MOTION_DOT = .68E-6
MEAN_MOTION_DDOT = 0

CCSDS_OMM_VERS = 2.0
CREATION_DATE  = 
ORIGINATOR     = 

OBJECT_NAME    = SL-16 R/B
OBJECT_ID      = 1994-023B
CENTER_NAME    = EARTH
REF_FRAME      = TEME
TIME_SYSTEM    = UTC
MEAN_ELEMENT_THEORY = SGP/SGP4

EPOCH          = 2026-02-15T07:20:02.735808
MEAN_MOTION    = 14.15006478
ECCENTRICITY   = .00046678
INCLINATION    = 70.9994
RA_OF_ASC_NODE = 117.8992
ARG_OF_PERICENTER = 306.8554
MEAN_ANOMALY   = 53.2140

EPHEMERIS_TYPE = 0
CLASSIFICATION_TYPE = U
NORAD_CAT_ID   = 23088
ELEMENT_SET_NO = 999
REV_AT_EPOCH   = 64292
BSTAR          = .19270946E-3
MEAN_MOTION_DOT = .326E-5
MEAN_MOTION_DDOT = 0

CCSDS_OMM_VERS = 2.0
CREATION_DATE  = 
ORIGINATOR     = 

OBJECT_NAME    = SL-16 R/B
OBJECT_ID      = 1994-074B
CENTER_NAME    = EARTH
REF_FRAME      = TEME
TIME_SYSTEM    = UTC
MEAN_ELEMENT_THEORY = SGP/SGP4

EPOCH          = 2026-02-15T01:35:14.519328
MEAN_MOTION    = 14.79380133
ECCENTRICITY   = .00052955
INCLINATION    = 97.7140
RA_OF_ASC_NODE = 77.7968
ARG_OF_PERICENTER = 302.2193
MEAN_ANOMALY   = 111.6624

EPHEMERIS_TYPE = 0
CLASSIFICATION_TYPE = U
NORAD_CAT_ID   = 23343
ELEMENT_SET_NO = 999
REV_AT_EPOCH   = 68390
BSTAR          = .67386702E-4
MEAN_MOTION_DOT = .453E-5
MEAN_MOTION_DDOT = 0

CCSDS_OMM_VERS = 2.0
CREATION_DATE  = 
ORIGINATOR     = 

OBJECT_NAME    = SL-16 R/B
OBJECT_ID      = 1994-077B
CENTER_NAME    = EARTH
REF_FRAME      = TEME
TIME_SYSTEM    = UTC
MEAN_ELEMENT_THEORY = SGP/SGP4

EPOCH          = 2026-02-15T05:24:22.946112
MEAN_MOTION    = 14.15561226
ECCENTRICITY   = .00040156
INCLINATION    = 70.9826
RA_OF_ASC_NODE = 39.7485
ARG_OF_PERICENTER = 231.7880
MEAN_ANOMALY   = 128.2881

EPHEMERIS_TYPE = 0
CLASSIFICATION_TYPE = U
NORAD_CAT_ID   = 23405
ELEMENT_SET_NO = 999
REV_AT_EPOCH   = 61305
BSTAR          = .19026304E-3
MEAN_MOTION_DOT = .324E-5
MEAN_MOTION_DDOT = 0

CCSDS_OMM_VERS = 2.0
CREATION_DATE  = 
ORIGINATOR     = 

OBJECT_NAME    = ARIANE 40+ R/B
OBJECT_ID      = 1995-021B
CENTER_NAME    = EARTH
REF_FRAME      = TEME
TIME_SYSTEM    = UTC
MEAN_ELEMENT_THEORY = SGP/SGP4

EPOCH          = 2026-02-15T05:33:56.916000
MEAN_MOTION    = 14.39755916
ECCENTRICITY   = .00064634
INCLINATION    = 98.4546
RA_OF_ASC_NODE = 118.0136
ARG_OF_PERICENTER = 199.5975
MEAN_ANOMALY   = 228.2917

EPHEMERIS_TYPE = 0
CLASSIFICATION_TYPE = U
NORAD_CAT_ID   = 23561
ELEMENT_SET_NO = 999
REV_AT_EPOCH   = 61601
BSTAR          = .13022861E-3
MEAN_MOTION_DOT = .365E-5
MEAN_MOTION_DDOT = 0

CCSDS_OMM_VERS = 2.0
CREATION_DATE  = 
ORIGINATOR     = 

OBJECT_NAME    = SL-16 R/B
OBJECT_ID      = 1995-058B
CENTER_NAME    = EARTH
REF_FRAME      = TEME
TIME_SYSTEM    = UTC
MEAN_ELEMENT_THEORY = SGP/SGP4

EPOCH          = 2026-02-14T22:45:47.407968
MEAN_MOTION    = 14.15495655
ECCENTRICITY   = .00117168
INCLINATION    = 71.0196
RA_OF_ASC_NODE = 227.9983
ARG_OF_PERICENTER = 164.6403
MEAN_ANOMALY   = 195.5078

EPHEMERIS_TYPE = 0
CLASSIFICATION_TYPE = U
NORAD_CAT_ID   = 23705
ELEMENT_SET_NO = 999
REV_AT_EPOCH   = 56463
BSTAR          = .52465122E-4
MEAN_MOTION_DOT = .55E-6
MEAN_MOTION_DDOT = 0

CCSDS_OMM_VERS = 2.0
CREATION_DATE  = 
ORIGINATOR     = 

OBJECT_NAME    = SL-16 R/B
OBJECT_ID      = 1996-051B
CENTER_NAME    = EARTH
REF_FRAME      = TEME
TIME_SYSTEM    = UTC
MEAN_ELEMENT_THEORY = SGP/SGP4

EPOCH          = 2026-02-14T22:28:40.672704
MEAN_MOTION    = 14.12409126
ECCENTRICITY   = .00170107
INCLINATION    = 70.7569
RA_OF_ASC_NODE = 223.3977
ARG_OF_PERICENTER = 180.3154
MEAN_ANOMALY   = 179.7958

EPHEMERIS_TYPE = 0
CLASSIFICATION_TYPE = U
NORAD_CAT_ID   = 24298
ELEMENT_SET_NO = 999
REV_AT_EPOCH   = 51843
BSTAR          = .78248503E-4
MEAN_MOTION_DOT = .95E-6
MEAN_MOTION_DDOT = 0

CCSDS_OMM_VERS = 2.0
CREATION_DATE  = 
ORIGINATOR     = 

OBJECT_NAME    = ORBVIEW 2 (SEASTAR)
OBJECT_ID      = 1997-037A
CENTER_NAME    = EARTH
REF_FRAME      = TEME
TIME_SYSTEM    = UTC
MEAN_ELEMENT_THEORY = SGP/SGP4

EPOCH          = 2026-02-15T01:02:27.956832
MEAN_MOTION    = 14.35477060
ECCENTRICITY   = .00031558
INCLINATION    = 98.8526
RA_OF_ASC_NODE = 209.7603
ARG_OF_PERICENTER = 117.8183
MEAN_ANOMALY   = 242.3322

EPHEMERIS_TYPE = 0
CLASSIFICATION_TYPE = U
NORAD_CAT_ID   = 24883
ELEMENT_SET_NO = 999
REV_AT_EPOCH   = 50522
BSTAR          = .12255063E-3
MEAN_MOTION_DOT = .306E-5
MEAN_MOTION_DDOT = 0

